COSMOS 2413 (712)       
1 28509U 04053B   16008.98180400  .00000105  00000-0  00000+0 0  9996
2 28509  63.1321 195.8028 0005614 159.8115 189.3531  2.13101818 85885
COSMOS 2419 (714)       
1 28915U 05050A   16007.64567141 -.00000016  00000-0  00000-0 0  9991
2 28915  65.2509  83.6209 0014563 349.0072  54.3353  2.13112853 78112
COSMOS 2425 (716)       
1 29670U 06062A   16009.22896787 -.00000038  00000-0  10000-3 0  9999
2 29670  65.7008 322.5305 0023057 340.5232 259.5421  2.13104945 70349
COSMOS 2426 (717)       
1 29671U 06062B   16008.47340579 -.00000041  00000-0  10000-3 0  9993
2 29671  65.7181 322.6338 0015576 172.8173  69.6510  2.13102998 70330
COSMOS 2424 (715)       
1 29672U 06062C   16009.38583767 -.00000037  00000-0  10000-3 0  9998
2 29672  65.7023 322.5344 0014939 171.7757 227.4622  2.13102084 70356
COSMOS 2433 (720)       
1 32275U 07052A   16009.22775767 -.00000002  00000-0  10000-3 0  9999
2 32275  65.2666  83.3352 0003383 246.9846 183.9321  2.13104994 63865
COSMOS 2432 (719)       
1 32276U 07052B   16008.61742497 -.00000007  00000-0  10000-3 0  9991
2 32276  65.2784  83.4189 0011058 333.0125 303.8655  2.13104162 63840
COSMOS 2434 (721)       
1 32393U 07065A   16009.02901190 -.00000039  00000-0  00000+0 0  9998
2 32393  65.3203 321.9362 0001409 106.3965  65.4037  2.13102737 62561
COSMOS 2436 (723)       
1 32395U 07065C   16008.54774288 -.00000041  00000-0  10000-3 0  9990
2 32395  65.3335 321.9925 0018303 346.6775 267.8953  2.13102773 62489
COSMOS 2443 (725)       
1 33379U 08046B   16008.68240122 -.00000007  00000-0  10000-3 0  9995
2 33379  65.1950  82.7862 0018943 186.7526  92.8439  2.13101428 56712
COSMOS 2456 (730)       
1 36111U 09070A   16008.31878925  .00000114  00000-0  00000+0 0  9991
2 36111  64.1863 201.5768 0003572 349.7100 165.9890  2.13102944 47210
COSMOS 2457 (733)       
1 36112U 09070B   16009.43870838  .00000107  00000-0  00000+0 0  9993
2 36112  64.1683 201.4691 0007401 145.7741 280.1150  2.13101613 47249
COSMOS 2458 (734)       
1 36113U 09070C   16008.60498302  .00000112  00000-0  10000-3 0  9995
2 36113  64.1734 201.5026 0003124  59.9987 133.5203  2.13101954 47222
COSMOS 2459 (731)       
1 36400U 10007A   16008.37698712 -.00000009  00000-0  10000-3 0  9993
2 36400  65.1736  82.5350 0027491 351.5872  13.4199  2.13102254 45578
COSMOS 2461 (735)       
1 36401U 10007B   16009.35324047 -.00000002  00000-0  10000-3 0  9993
2 36401  65.1664  82.4853 0005138  81.4424 223.0634  2.13102222 45581
COSMOS 2460 (732)       
1 36402U 10007C   16009.06626684 -.00000004  00000-0  10000-3 0  9996
2 36402  65.1568  82.4735 0001212 213.0031 273.4693  2.13101917 45584
COSMOS 2466 (738)       
1 37137U 10041A   16008.35359811 -.00000043  00000-0  10000-3 0  9999
2 37137  64.9045 322.1434 0018648 158.8404  78.4236  2.13102272 41642
COSMOS 2465 (737)       
1 37138U 10041B   16009.00962755 -.00000040  00000-0  00000+0 0  9992
2 37138  64.9211 322.1907 0033438 171.8597  31.2131  2.13102688 41658
COSMOS 2464 (736)       
1 37139U 10041C   16008.64578366 -.00000041  00000-0  00000+0 0  9994
2 37139  64.9230 322.1953 0022353   7.5953  50.9349  2.13102887 41656
COSMOS 2471 (701K)      
1 37372U 11009A   16008.90809881 -.00000005  00000-0  00000+0 0  9996
2 37372  65.1545  82.4288 0008603 231.8852 265.2972  2.13102926 37850
COSMOS 2474 (742)       
1 37829U 11055A   16008.30288439  .00000115  00000-0  00000+0 0  9999
2 37829  64.5105 201.9232 0005602 249.3871 116.2296  2.13101903 33214
COSMOS 2476 (744)       
1 37867U 11064A   16009.17116777  .00000110  00000-0  00000+0 0  9997
2 37867  64.4907 201.9792 0014396 245.5763 111.9190  2.13102026 32574
COSMOS 2477 (745)       
1 37868U 11064B   16008.64594639  .00000113  00000-0  00000+0 0  9999
2 37868  64.4990 202.0357 0012438 246.7452 247.2249  2.13101911 32524
COSMOS 2475 (743)       
1 37869U 11064C   16009.15748487  .00000110  00000-0  00000+0 0  9996
2 37869  64.5064 202.0046 0018123 278.9149 203.5449  2.13102149 32543
COSMOS 2478 (746)       
1 37938U 11071A   16009.45548344 -.00000001  00000-0  00000+0 0  9994
2 37938  65.1806  82.6285 0014382 239.2642  78.9983  2.13088396 32150
COSMOS 2485 (747)       
1 39155U 13019A   16009.11685972  .00000110  00000-0  00000+0 0  9993
2 39155  64.6598 201.8961 0014740 239.3501 121.6800  2.13102080 21052
COSMOS 2492 (754)       
1 39620U 14012A   16008.64166664  .00000002  00000-0  23253+2 0  9990
2 39620  65.0450  82.4987 0014871 329.3831  59.7844  2.13103772 13995
COSMOS 2500 (755)       
1 40001U 14032A   16008.67956480 -.00000007  00000-0  00000+0 0  9992
2 40001  64.9860  82.5339 0007267 206.8908  75.3746  2.13102874 12200
COSMOS 2501 (702K)      
1 40315U 14075A   16008.64578366 -.00000042  00000-0  00000+0 0  9996
2 40315  64.6914 323.7026 0018345 241.0012 177.4155  2.13101448  8618
